UPMSAT-2                
1 46276U 20061E   23268.71849679  .00016570  00000+0  65877-3 0  9990
2 46276  97.3372 334.2749 0001435  50.8005 309.3361 15.25365916169601
NEMO-HD                 
1 46277U 20061F   23269.19467815  .00008384  00000+0  37081-3 0  9992
2 46277  97.3373 333.3327 0001821  46.4132 313.7255 15.21927619169584
GHGSAT-C1               
1 46278U 20061G   23269.17758513  .00016771  00000+0  63303-3 0  9994
2 46278  97.3375 335.7605 0002876  65.9143 294.2397 15.27089935169745
SIMBA                   
1 46279U 20061H   23268.71867835  .00041246  00000+0  15168-2 0  9992
2 46279  97.3929 334.9579 0003837  88.5546 271.6133 15.27758000169077
TRISAT                  
1 46280U 20061J   23268.75485769  .00031443  00000+0  12122-2 0  9995
2 46280  97.3844 334.1779 0003790  86.3408 273.8264 15.26254425169069
PICASSO-BEL             
1 46281U 20061K   23268.71539772  .00063966  00000+0  19008-2 0  9991
2 46281  97.3902 337.2754 0003016  81.9850 278.1736 15.34528230169255
DIDO 3                  
1 46284U 20061N   23268.72496183  .00021365  00000+0  94700-3 0  9993
2 46284  97.3902 332.9073 0004131  90.2769 269.8941 15.21624863168928
FLOCK 4V-11             
1 46285U 20061P   23268.78314631  .00022365  00000+0  79225-3 0  9993
2 46285  97.3934 337.0070 0004157  78.6580 281.5127 15.29118157169229
FLOCK 4V-14             
1 46286U 20061Q   23268.75209880  .00023292  00000+0  81728-3 0  9991
2 46286  97.3935 337.0669 0003764  73.8894 286.2760 15.29423194169228
AMICALSAT               
1 46287U 20061R   23268.70880800  .00024047  00000+0  10273-2 0  9999
2 46287  97.3909 333.4563 0003459 101.2763 258.8863 15.22858463168991
FLOCK 4V-8              
1 46288U 20061S   23268.69614949  .00024244  00000+0  85818-3 0  9994
2 46288  97.3933 336.9472 0003456  88.0724 272.0912 15.29129054169125
FLOCK 4V-6              
1 46289U 20061T   23269.13444994  .00015074  00000+0  59131-3 0  9996
2 46289  97.3986 336.7105 0003643 121.5085 238.6509 15.25832899169221
FLOCK 4V-5              
1 46290U 20061U   23268.75125325  .00095611  00000+0  32238-2 0  9992
2 46290  97.3928 334.5340 0002387 143.1505 216.9900 15.30331990169054
FLOCK 4V-7              
1 46291U 20061V   23268.73507544  .00069589  00000+0  19604-2 0  9995
2 46291  97.3930 337.8515 0001947 114.6010 245.5437 15.36183410169166
OSM-1 CICERO            
1 46294U 20061Y   23269.16080670  .00016540  00000+0  74564-3 0  9998
2 46294  97.3914 333.9210 0003747  66.6656 293.4974 15.21098753169046
TYVAK-0171              
1 46295U 20061Z   23268.81326875  .00085337  00000+0  20807-2 0  9990
2 46295  97.3970 340.4410 0002119  65.4452 294.7015 15.40569386169346
FLOCK 4V-10             
1 46296U 20061AA  23268.74694234  .00025285  00000+0  89168-3 0  9992
2 46296  97.3943 337.2943 0001942  67.4008 292.7437 15.29246612169194
FLOCK 4V-13             
1 46297U 20061AB  23268.73299240  .00022067  00000+0  78206-3 0  9996
2 46297  97.3935 337.3105 0001459  70.5390 289.6008 15.29113378169178
LEMUR-2-ETHANOAKES      
1 46298U 20061AC  23268.45654277  .00066747  00000+0  12426-2 0  9995
2 46298  97.3951 343.9326 0000038 290.9841  69.1405 15.48628428169569
LEMUR-2-OSCARLATOR      
1 46299U 20061AD  23268.69686709  .00079856  00000+0  10581-2 0  9992
2 46299  97.3994 346.3386 0002914  53.5666 306.5857 15.58012739169767
TTU100                  
1 46312U 20061AS  23269.13856688  .00039113  00000+0  13667-2 0  9993
2 46312  97.3954 337.7131 0001985  24.9546 335.1789 15.29452921169252
FLOCK 4V-1              
1 46313U 20061AT  23268.78063156  .00067887  00000+0  20105-2 0  9998
2 46313  97.3943 338.2136 0002598  33.9993 326.1416 15.34617538169248
FLOCK 4V-4              
1 46314U 20061AU  23268.71223819  .00239982  00000+0  39526-2 0  9990
2 46314  97.3889 339.7557 0001715 258.3204 101.7855 15.51458127169395
LEMUR-2-SCHMIDTFALL     
1 46315U 20061AV  23268.74063446  .00146237  00000+0  15706-2 0  9996
2 46315  97.3962 347.5642 0002541 263.3857  96.7112 15.63293463169884
LEMUR-2-DJUPROERA       
1 46316U 20061AW  23268.77962504  .00411625  00000+0  17181-2 0  9998
2 46316  97.3912 350.3387 0002475 199.3016 160.8160 15.84622608170078
LEMUR-2-SQUAREJAWS      
1 46317U 20061AX  23268.77087698  .00189588  00000+0  16207-2 0  9999
2 46317  97.3967 348.6992 0000838 330.6615  29.4599 15.68885378169977
LEMUR-2-URSA-AVION      
1 46318U 20061AY  23268.99062808  .00141310  00000+0  13524-2 0  9990
2 46318  97.3945 348.5322 0000633 332.0462  28.0764 15.66236969169983
KEPLER-2 (TARS)         
1 46319U 20061AZ  23268.74339907  .00027134  00000+0  11035-2 0  9993
2 46319  97.3926 335.5464 0001557  18.9355 341.1940 15.24502523169131
NAPA-1                  
1 46320U 20061BA  23269.19655966  .00013113  00000+0  66107-3 0  9994
2 46320  97.3941 333.4366 0002413  14.7780 345.3524 15.17273205169033
STARLINK-1734           
1 46325U 20062A   23268.83693759 -.00000672  00000+0 -26207-4 0  9998
2 46325  53.0556  33.2538 0001118  98.9431 261.1684 15.06403794170527
STARLINK-1654           
1 46326U 20062B   23268.76831558  .00022088  00000+0  14956-2 0  9991
2 46326  53.0535  78.8057 0001209  64.4527 295.6587 15.06437427169275
STARLINK-1673           
1 46327U 20062C   23268.85674123  .00025644  00000+0  17318-2 0  9991
2 46327  53.0536  78.1675 0001383 101.3980 258.7164 15.06451630169467
STARLINK-1686           
1 46328U 20062D   23268.70378993  .00028266  00000+0  19072-2 0  9994
2 46328  53.0546  58.8532 0001514  94.4537 265.6625 15.06432552169542
STARLINK-1695           
1 46329U 20062E   23268.73694651  .00032724  00000+0  22027-2 0  9998
2 46329  53.0545  58.7065 0001210  84.8719 275.2408 15.06449562169545
STARLINK-1710           
1 46330U 20062F   23268.72589490  .00006522  00000+0  45612-3 0  9996
2 46330  53.0546  58.7564 0001234  83.2652 276.8477 15.06418250169551
STARLINK-1719           
1 46331U 20062G   23268.76091076  .00027542  00000+0  18585-2 0  9992
2 46331  53.0542  78.5946 0001164 102.5537 257.5582 15.06443036169273
STARLINK-1721           
1 46332U 20062H   23268.82107465  .00022937  00000+0  10071-2 0  9995
2 46332  53.0446  61.3939 0001541  84.3062 275.8109 15.21859590169527
STARLINK-1723           
1 46333U 20062J   23268.78671012  .00018684  00000+0  12687-2 0  9994
2 46333  53.0530  78.4826 0001142 101.6139 258.4978 15.06435537169278
STARLINK-1725           
1 46334U 20062K   23268.85493230  .00030178  00000+0  20333-2 0  9996
2 46334  53.0553  58.4553 0001164  85.5317 274.5805 15.06453222169742
STARLINK-1727           
1 46335U 20062L   23268.74985952  .00026409  00000+0  17833-2 0  9995
2 46335  53.0546  78.6495 0001276  59.3632 300.7483 15.06440137169270
STARLINK-1738           
1 46336U 20062M   23268.74063570  .00033601  00000+0  22612-2 0  9992
2 46336  53.0535  58.6874 0001341  59.7684 300.3438 15.06445048169544
STARLINK-1750           
1 46337U 20062N   23268.68904572  .00030175  00000+0  20344-2 0  9995
2 46337  53.0543  58.9240 0000999  91.3152 268.7952 15.06428898169726
STARLINK-1752           
1 46338U 20062P   23268.80514504  .00021194  00000+0  14363-2 0  9997
2 46338  53.0538  78.3990 0001516  72.4319 287.6836 15.06429771169272
STARLINK-1759           
1 46340U 20062R   23268.75030291  .00026852  00000+0  17344-2 0  9998
2 46340  53.0547  78.3533 0001207  59.4073 300.7036 15.08075344169260
STARLINK-1760           
1 46341U 20062S   23268.71852072  .00032967  00000+0  22190-2 0  9993
2 46341  53.0555  58.7879 0001167  96.3200 263.7922 15.06446178169731
STARLINK-1762           
1 46342U 20062T   23268.76459489  .00027399  00000+0  18492-2 0  9997
2 46342  53.0541  78.5821 0001182  87.8874 272.2250 15.06439009169276
STARLINK-1764           
1 46343U 20062U   23268.89175008  .00029746  00000+0  20041-2 0  9995
2 46343  53.0543  58.0101 0000961  96.8229 263.2869 15.06462326169758
STARLINK-1765           
1 46344U 20062V   23268.71115108  .00028976  00000+0  19532-2 0  9999
2 46344  53.0545  58.8206 0001617  90.0260 270.0914 15.06456878169544
STARLINK-1767           
1 46345U 20062W   23268.77933747  .00022462  00000+0  15206-2 0  9991
2 46345  53.0544  78.5141 0001371 101.8162 258.2980 15.06435989169271
STARLINK-1547           
1 46347U 20062Y   23268.67106891  .00030915  00000+0  20861-2 0  9999
2 46347  53.0549  33.9992 0001228  70.0598 290.0523 15.06384425169879
STARLINK-1553           
1 46348U 20062Z   23268.91388779  .00007531  00000+0  52373-3 0  9996
2 46348  53.0545  57.9102 0001245  92.4660 267.6472 15.06414406169755
STARLINK-1575           
1 46349U 20062AA  23268.64528081  .00011681  00000+0  80156-3 0  9990
2 46349  53.0569  34.1162 0001491 111.0944 249.0205 15.06408877169888
STARLINK-1617           
1 46350U 20062AB  23268.80883785  .00023020  00000+0  15581-2 0  9994
2 46350  53.0531  78.3813 0001398 103.6802 256.4342 15.06428328169469
STARLINK-1646           
1 46351U 20062AC  23268.68166068  .00026268  00000+0  17740-2 0  9995
2 46351  53.0542  58.9536 0001130  84.7945 275.3173 15.06438307169559
STARLINK-1653           
1 46352U 20062AD  23268.72959250  .00019452  00000+0  13209-2 0  9997
2 46352  53.0559  58.7411 0001344  99.1972 260.9169 15.06407709169552
STARLINK-1656           
1 46353U 20062AE  23268.86042720  .00026678  00000+0  18007-2 0  9997
2 46353  53.0544  78.1513 0001419 108.0862 252.0282 15.06449751169468
STARLINK-1657           
1 46354U 20062AF  23268.84938458  .00010397  00000+0  71551-3 0  9993
2 46354  53.0552  78.2009 0001369  91.8183 268.2963 15.06416645169289
STARLINK-1661           
1 46355U 20062AG  23268.95626157  .00023530  00000+0  15912-2 0  9997
2 46355  53.0552  77.7212 0000879  79.9829 280.1260 15.06449178169481
STARLINK-1665           
1 46356U 20062AH  23268.77198186  .00021312  00000+0  14446-2 0  9991
2 46356  53.0550  78.5895 0001202  89.2534 270.8593 15.06418579169277
